CCSDS_OEM_VERS = 1.0
CREATION_DATE  = 2017-05-11T11:36:51
ORIGINATOR     = GMAT USER

META_START
OBJECT_NAME          = MOPSSat_alt_35785_km_RAAN_180_086
OBJECT_ID            = SatId
CENTER_NAME          = Earth
REF_FRAME            = EME2000
TIME_SYSTEM          = UTC
START_TIME           = 2017-01-01T00:00:00.000
USEABLE_START_TIME   = 2017-01-01T00:00:00.000
USEABLE_STOP_TIME    = 2017-01-02T00:00:00.000
STOP_TIME            = 2017-01-02T00:00:00.000
INTERPOLATION        = Lagrange
INTERPOLATION_DEGREE = 7 
META_STOP


                                                                                   

2017-01-01T17:52:30.000   1.671377849998410e+03   4.214410029581583e+04  -7.441257037116299e+01  -3.072367088152014e+00   9.102235966091045e-02  -5.582731391924383e-05
2017-01-01T17:52:40.000   1.640653736982114e+03   4.214499932440396e+04  -7.441310871882450e+01  -3.072455122793502e+00   8.878333843530561e-02  -5.184219509137742e-05
2017-01-01T17:52:50.000   1.609928751805655e+03   4.214587596229712e+04  -7.441360721465892e+01  -3.072541526999357e+00   8.654422102360537e-02  -4.785694890255776e-05
2017-01-01T17:53:00.000   1.579202911015155e+03   4.214673020853287e+04  -7.441406585739999e+01  -3.072626300651580e+00   8.430500862802132e-02  -4.387157751291488e-05
2017-01-01T17:53:10.000   1.548476231231231e+03   4.214756206215863e+04  -7.441448464580189e+01  -3.072709443632840e+00   8.206570245626349e-02  -3.988608309234618e-05
2017-01-01T17:53:20.000   1.517748728443983e+03   4.214837152225096e+04  -7.441486357864892e+01  -3.072790955828383e+00   7.982630367016079e-02  -3.590046772905732e-05
2017-01-01T17:53:30.000   1.487020418719769e+03   4.214915858789618e+04  -7.441520265474551e+01  -3.072870837124103e+00   7.758681343716872e-02  -3.191473352124880e-05
2017-01-01T17:53:40.000   1.456291318018758e+03   4.214992325819553e+04  -7.441550187291924e+01  -3.072949087407050e+00   7.534723291707369e-02  -2.792888255344749e-05
2017-01-01T17:53:50.000   1.425561442685490e+03   4.215066553225045e+04  -7.441576123201142e+01  -3.073025706564008e+00   7.310756329774204e-02  -2.394291696014353e-05
2017-01-01T17:54:00.000   1.394830809044054e+03   4.215138540917517e+04  -7.441598073088568e+01  -3.073100694482694e+00   7.086780576561967e-02  -1.995683887327537e-05
2017-01-01T17:54:10.000   1.364099433491417e+03   4.215208288809375e+04  -7.441616036842575e+01  -3.073174051051488e+00   6.862796151253274e-02  -1.597065043433583e-05
2017-01-01T17:54:20.000   1.333367332461280e+03   4.215275796814249e+04  -7.441630014353856e+01  -3.073245776159626e+00   6.638803173305627e-02  -1.198435378968338e-05
2017-01-01T17:54:30.000   1.302634522406833e+03   4.215341064846908e+04  -7.441640005515221e+01  -3.073315869697156e+00   6.414801762325502e-02  -7.997951088305785e-06
2017-01-01T17:54:40.000   1.271901019763970e+03   4.215404092823340e+04  -7.441646010221599e+01  -3.073384331555016e+00   6.190792037800223e-02  -4.011444477049159e-06
2017-01-01T17:54:50.000   1.241166840934106e+03   4.215464880660913e+04  -7.441648028370281e+01  -3.073451161625180e+00   5.966774118972991e-02  -2.483609838785993e-08
2017-01-01T17:55:00.000   1.210432002247954e+03   4.215523428278293e+04  -7.441646059860639e+01  -3.073516359800603e+00   5.742748124578517e-02   3.961871914272386e-06
2017-01-01T17:55:10.000   1.179696520058894e+03   4.215579735595335e+04  -7.441640104594246e+01  -3.073579925975089e+00   5.518714173523775e-02   7.948677424484566e-06
2017-01-01T17:55:20.000   1.148960410337919e+03   4.215633802533595e+04  -7.441630162474405e+01  -3.073641860043959e+00   5.294672381935178e-02   1.193557834529105e-05
2017-01-01T17:55:30.000   1.118223689164457e+03   4.215685629015656e+04  -7.441616233406646e+01  -3.073702161903194e+00   5.070622866736496e-02   1.592257257557007e-05
2017-01-01T17:55:40.000   1.087486372540855e+03   4.215735214965409e+04  -7.441598317298559e+01  -3.073760831449781e+00   4.846565744296612e-02   1.990965802409298e-05
2017-01-01T17:55:50.000   1.056748477111028e+03   4.215782560306874e+04  -7.441576414060212e+01  -3.073817868580327e+00   4.622501135667983e-02   2.389683251632474e-05
2017-01-01T17:56:00.000   1.026010019441805e+03   4.215827664965393e+04  -7.441550523603775e+01  -3.073873273192453e+00   4.398429161348107e-02   2.788409388762443e-05
2017-01-01T17:56:10.000   9.952710162084013e+02   4.215870528867311e+04  -7.441520645843582e+01  -3.073927045184425e+00   4.174349942631499e-02   3.187143995919384e-05
2017-01-01T17:56:20.000   9.645314837036531e+02   4.215911151940901e+04  -7.441486780696101e+01  -3.073979184456189e+00   3.950263598032519e-02   3.585886860171487e-05
2017-01-01T17:56:30.000   9.337914382429813e+02   4.215949534115552e+04  -7.441448928079886e+01  -3.074029690908489e+00   3.726170246237050e-02   3.984637768284222e-05
2017-01-01T17:56:40.000   9.030508960710175e+02   4.215985675321970e+04  -7.441407087915604e+01  -3.074078564443072e+00   3.502070005421935e-02   4.383396507930752e-05
2017-01-01T17:56:50.000   8.723098733977428e+02   4.216019575491968e+04  -7.441361260125790e+01  -3.074125804962513e+00   3.277962993518216e-02   4.782162867225316e-05
2017-01-01T17:57:00.000   8.415683864157197e+02   4.216051234558578e+04  -7.441311444635092e+01  -3.074171412370280e+00   3.053849328336920e-02   5.180936634497557e-05
2017-01-01T17:57:10.000   8.108264513368687e+02   4.216080652456008e+04  -7.441257641370350e+01  -3.074215386570686e+00   2.829729127837174e-02   5.579717597816203e-05
2017-01-01T17:57:20.000   7.800840844096425e+02   4.216107829119488e+04  -7.441199850260371e+01  -3.074257727468757e+00   2.605602510251238e-02   5.978505544764281e-05
2017-01-01T17:57:30.000   7.493413019552409e+02   4.216132764485421e+04  -7.441138071236293e+01  -3.074298434970310e+00   2.381469594348726e-02   6.377300261971356e-05
2017-01-01T17:57:40.000   7.185981202741933e+02   4.216155458491360e+04  -7.441072304231271e+01  -3.074337508982019e+00   2.157330498755488e-02   6.776101536324558e-05
2017-01-01T17:57:50.000   6.878545560514798e+02   4.216175911075955e+04  -7.441002549181745e+01  -3.074374949411069e+00   1.933185344907506e-02   7.174909149715342e-05
2017-01-01T17:58:00.000   6.571106258655950e+02   4.216194122179090e+04  -7.440928806025994e+01  -3.074410756165614e+00   1.709034253471339e-02   7.573722885405924e-05
2017-01-01T17:58:10.000   6.263663463710988e+02   4.216210091741799e+04  -7.440851074704632e+01  -3.074444929154593e+00   1.484877345675117e-02   7.972542525662001e-05
2017-01-01T17:58:20.000   5.956217335914127e+02   4.216223819706665e+04  -7.440769355158872e+01  -3.074477468288531e+00   1.260714738152351e-02   8.371367860924614e-05
2017-01-01T17:58:30.000   5.648768036242155e+02   4.216235306017411e+04  -7.440683647332212e+01  -3.074508373478723e+00   1.036546548084910e-02   8.770198680661733e-05
2017-01-01T17:58:40.000   5.341315724816034e+02   4.216244550619020e+04  -7.440593951170140e+01  -3.074537644637448e+00   8.123728920377108e-03   9.169034775440971e-05
2017-01-01T17:58:50.000   5.033860564882273e+02   4.216251553457329e+04  -7.440500266620730e+01  -3.074565281677368e+00   5.881938888612184e-03   9.567875931767018e-05
2017-01-01T17:59:00.000   4.726402719857027e+02   4.216256314479415e+04  -7.440402593634354e+01  -3.074591284512036e+00   3.640096575366595e-03   9.966721935913934e-05
2017-01-01T17:59:10.000   4.418942353325855e+02   4.216258833633479e+04  -7.440300932163464e+01  -3.074615653055810e+00   1.398203171756677e-03   1.036557257392622e-04
2017-01-01T17:59:20.000   4.111479632000292e+02   4.216259110869125e+04  -7.440195282164093e+01  -3.074638387223833e+00  -8.437401082345043e-04   1.076442762778146e-04
2017-01-01T17:59:30.000   3.804014721735467e+02   4.216257146137094e+04  -7.440085643594031e+01  -3.074659486932147e+00  -3.085732056799399e-03   1.116328688055831e-04
2017-01-01T17:59:40.000   3.496547789098767e+02   4.216252939389349e+04  -7.439972016413492e+01  -3.074678952097615e+00  -5.327771460866783e-03   1.156215011440103e-04
2017-01-01T17:59:50.000   3.189078994431302e+02   4.216246490578970e+04  -7.439854400582557e+01  -3.074696782638382e+00  -7.569857152697077e-03   1.196101711952181e-04
2017-01-01T18:00:00.000   2.881608498786246e+02   4.216237799660230e+04  -7.439732796063682e+01  -3.074712978473395e+00  -9.811987959288742e-03   1.235988768519873e-04
2017-01-01T18:00:10.000   2.574136462360080e+02   4.216226866588615e+04  -7.439607202821210e+01  -3.074727539522554e+00  -1.205416271381680e-02   1.275876160181124e-04
2017-01-01T18:00:20.000   2.266663048474429e+02   4.216213691320655e+04  -7.439477620822447e+01  -3.074740465706286e+00  -1.429638022660074e-02   1.315763865567401e-04
2017-01-01T18:00:30.000   1.959188420619751e+02   4.216198273814147e+04  -7.439344050037003e+01  -3.074751756945923e+00  -1.653863930665806e-02   1.355651863287261e-04
2017-01-01T18:00:40.000   1.651712742455178e+02   4.216180614028016e+04  -7.439206490436594e+01  -3.074761413163609e+00  -1.878093876170728e-02   1.395540131926358e-04
2017-01-01T18:00:50.000   1.344236180765044e+02   4.216160711922793e+04  -7.439064941996881e+01  -3.074769434282428e+00  -2.102327737660279e-02   1.435428649663917e-04
2017-01-01T18:01:00.000   1.036758901476493e+02   4.216138567460101e+04  -7.438919404695190e+01  -3.074775820226316e+00  -2.326565394238093e-02   1.475317394789350e-04
2017-01-01T18:01:10.000   7.292810712579544e+01   4.216114180602824e+04  -7.438769878511368e+01  -3.074780570920074e+00  -2.550806724460185e-02   1.515206345494879e-04
2017-01-01T18:01:20.000   4.218028504641671e+01   4.216087551314553e+04  -7.438616363424349e+01  -3.074783686289480e+00  -2.775051611480093e-02   1.555095480790811e-04
2017-01-01T18:01:30.000   1.143244002088570e+01   4.216058679560120e+04  -7.438458859415559e+01  -3.074785166261155e+00  -2.999299937890848e-02   1.594984779587959e-04
